ONEWEB-0668             
1 56711U 23068B   24226.42756269  .00000164  00000+0  39534-3 0  9993
2 56711  87.9133   2.7229 0002322 108.7564 251.3819 13.16595438 63255
ONEWEB-0676             
1 56712U 23068C   24226.40776752  .00000064  00000+0  13498-3 0  9991
2 56712  87.9143   2.7366 0001829  79.5449 280.5888 13.16594487 63171
ONEWEB-0678             
1 56714U 23068E   24226.43291529  .00000028  00000+0  41315-4 0  9990
2 56714  87.9041  33.0342 0001482  87.7724 272.3576 13.15546794 60833
ONEWEB-0680             
1 56716U 23068G   24226.38327861  .00000115  00000+0  24583-3 0  9999
2 56716  87.9309  17.9566 0002512 107.3552 252.7857 13.21827304 62218
ONEWEB-0681             
1 56717U 23068H   24226.39354459  .00001058  00000+0  25311-2 0  9990
2 56717  87.9306  17.9338 0002349  68.4934 291.6450 13.21820756 62206
